SES-12                  
1 43488U 18049A   23088.09052126 -.00000277  00000+0  00000+0 0  9990
2 43488   0.0353  52.1078 0002072 248.4654  13.2312  1.00271789 17619
O3B FM20                
1 44112U 19020A   23087.45619972 -.00000030  00000+0  00000+0 0  9999
2 44112   0.0539   4.1580 0003360 359.9683 355.8733  5.00115646 72702
O3B FM19                
1 44113U 19020B   23087.68302706 -.00000030  00000+0  00000+0 0  9999
2 44113   0.0596   4.7496 0003485  25.1673 330.0998  5.00115348 72579
O3B FM17                
1 44114U 19020C   23087.16365604 -.00000030  00000+0  00000+0 0  9999
2 44114   0.0504  25.4903 0003052 337.0473 357.4606  5.00115873 72645
O3B FM18                
1 44115U 19020D   23087.50989817 -.00000030  00000+0  00000+0 0  9996
2 44115   0.0541   3.8115 0002851   0.7663 355.4215  5.00116011 72787
SES-17                  
1 49332U 21095A   23087.84321007 -.00000279  00000+0  00000+0 0  9990
2 49332   0.0153 120.6938 0001031 228.5527  73.1810  1.00269703  6045
SES-22                  
1 52933U 22071A   23088.54146368  .00000080  00000+0  00000+0 0  9998
2 52933   0.0180 215.1529 0002242 144.8264 246.6253  1.00274343  2775
SES-20                  
1 53960U 22123A   23087.61932256 -.00000109  00000+0  00000+0 0  9996
2 53960   0.0360 135.6108 0001072 216.0065 314.0186  1.00272485  1742
SES-21                  
1 53961U 22123B   23088.21528097  .00000062  00000+0  00000+0 0  9995
2 53961   0.0201 110.2873 0000775 262.3583 120.2095  1.00270411  1768
O3B MPOWER-A F1         
1 54755U 22174A   23087.89832860 -.00000023  00000+0  00000+0 0  9990
2 54755   1.6493 152.4860 0565852  31.9062 120.8652  5.37102386  6464
O3B MPOWER-A F2         
1 54756U 22174B   23088.48700571 -.00000028  00000+0  00000+0 0  9995
2 54756   0.4998 165.9113 0295925  19.3772  31.6280  5.09055188  6609
SES-18                  
1 55970U 23038A   23087.94156716 -.00000121  00000+0  00000+0 0  9994
2 55970   0.5364 348.2520 0394790 189.3226 182.6031  1.06550850   329
SES-19                  
1 55971U 23038B   23087.48619424 -.00000152  00000+0  00000+0 0  9998
2 55971   1.7984 354.8769 1260765 183.5414 344.5666  1.20116129   279
